{"type": "FeatureCollection", "features": [ {"type": "Feature", "properties": {"norad_id": 32260, "name": "GPS BIIRM-4 (PRN 15)", "group": "gnss", "lat": 8.462032272143176, "lon": -98.98766762873916, "alt_km": 20129.58073410369, "timestamp": "2025-12-25T22:42:17.253421+00:00", "meta": {"OBJECT_NAME": "GPS BIIRM-4 (PRN 15)", "OBJECT_ID": "2007-047A", "EPOCH": "2025-12-23T05:22:00.882048", "MEAN_MOTION": 2.00564099, "ECCENTRICITY": 0.01640403, "INCLINATION": 53.9621, "RA_OF_ASC_NODE": 87.3254, "ARG_OF_PERICENTER": 85.3777, "MEAN_ANOMALY": 276.5133, "EPHEMERIS_TYPE": 0, "CLASSIFICATION_TYPE": "U", "NORAD_CAT_ID": 32260, "ELEMENT_SET_NO": 999, "REV_AT_EPOCH": 13328, "BSTAR": 0, "MEAN_MOTION_DOT": -6e-08, "MEAN_MOTION_DDOT": 0}, "tle": {"line1": "1 32260U 07047A   25357.22362132 -.00000006  00000+0  00000+0 0  9999", "line2": "2 32260  53.9621  87.3254 0164040  85.3777 276.5133  2.00564099133281"}}, "geometry": {"type": "Point", "coordinates": [-98.98766762873916, 8.462032272143176]}}, {"type": "Feature", "properties": {"norad_id": 32275, "name": "COSMOS 2433 (720)", "group": "gnss", "lat": 33.12336830360562, "lon": 124.59550048890955, "alt_km": 19131.22518717904, "timestamp": "2025-12-25T22:42:17.253434+00:00", "meta": {"OBJECT_NAME": "COSMOS 2433 (720)", "OBJECT_ID": "2007-052A", "EPOCH": "2025-12-24T08:26:16.805760", "MEAN_MOTION": 2.13104186, "ECCENTRICITY": 0.00051043, "INCLINATION": 65.677, "RA_OF_ASC_NODE": 321.8159, "ARG_OF_PERICENTER": 257.0223, "MEAN_ANOMALY": 102.9214, "EPHEMERIS_TYPE": 0, "CLASSIFICATION_TYPE": "U", "NORAD_CAT_ID": 32275, "ELEMENT_SET_NO": 999, "REV_AT_EPOCH": 14133, "BSTAR": 0, "MEAN_MOTION_DOT": -3.3e-07, "MEAN_MOTION_DDOT": 0}, "tle": {"line1": "1 32275U 07052A   25358.35158340 -.00000033  00000+0  00000+0 0  9990", "line2": "2 32275  65.6770 321.8159 0005104 257.0223 102.9214  2.13104186141339"}}, "geometry": {"type": "Point", "coordinates": [124.59550048890955, 33.12336830360562]}}, {"type": "Feature", "properties": {"norad_id": 32276, "name": "COSMOS 2432 (719)", "group": "gnss", "lat": 65.59093839905493, "lon": 46.31000505941528, "alt_km": 19142.619062331287, "timestamp": "2025-12-25T22:42:17.253446+00:00", "meta": {"OBJECT_NAME": "COSMOS 2432 (719)", "OBJECT_ID": "2007-052B", "EPOCH": "2025-12-24T04:32:38.772960", "MEAN_MOTION": 2.13103387, "ECCENTRICITY": 0.00113791, "INCLINATION": 65.6931, "RA_OF_ASC_NODE": 321.9458, "ARG_OF_PERICENTER": 314.7871, "MEAN_ANOMALY": 225.1187, "EPHEMERIS_TYPE": 0, "CLASSIFICATION_TYPE": "U", "NORAD_CAT_ID": 32276, "ELEMENT_SET_NO": 999, "REV_AT_EPOCH": 14135, "BSTAR": 0, "MEAN_MOTION_DOT": -3.3e-07, "MEAN_MOTION_DDOT": 0}, "tle": {"line1": "1 32276U 07052B   25358.18933765 -.00000033  00000+0  00000+0 0  9994", "line2": "2 32276  65.6931 321.9458 0011379 314.7871 225.1187  2.13103387141354"}}, "geometry": {"type": "Point", "coordinates": [46.31000505941528, 65.59093839905493]}}, {"type": "Feature", "properties": {"norad_id": 32384, "name": "GPS BIIRM-5 (PRN 29)", "group": "gnss", "lat": -47.047963576203315, "lon": -127.21072371032875, "alt_km": 20247.359386872744, "timestamp": "2025-12-25T22:42:17.253458+00:00", "meta": {"OBJECT_NAME": "GPS BIIRM-5 (PRN 29)", "OBJECT_ID": "2007-062A", "EPOCH": "2025-12-25T18:38:05.063136", "MEAN_MOTION": 2.0054934, "ECCENTRICITY": 0.0031403, "INCLINATION": 55.1709, "RA_OF_ASC_NODE": 281.123, "ARG_OF_PERICENTER": 162.2821, "MEAN_ANOMALY": 11.9892, "EPHEMERIS_TYPE": 0, "CLASSIFICATION_TYPE": "U", "NORAD_CAT_ID": 32384, "ELEMENT_SET_NO": 999, "REV_AT_EPOCH": 13203, "BSTAR": 0, "MEAN_MOTION_DOT": -2.7e-07, "MEAN_MOTION_DDOT": 0}, "tle": {"line1": "1 32384U 07062A   25359.77644749 -.00000027  00000+0  00000+0 0  9995", "line2": "2 32384  55.1709 281.1230 0031403 162.2821  11.9892  2.00549340132035"}}, "geometry": {"type": "Point", "coordinates": [-127.21072371032875, -47.047963576203315]}}, {"type": "Feature", "properties": {"norad_id": 32393, "name": "COSMOS 2434 (721)", "group": "gnss", "lat": 29.952180356943398, "lon": -146.1325365880323, "alt_km": 19116.930527935438, "timestamp": "2025-12-25T22:42:17.253470+00:00", "meta": {"OBJECT_NAME": "COSMOS 2434 (721)", "OBJECT_ID": "2007-065A", "EPOCH": "2025-12-25T04:50:38.690880", "MEAN_MOTION": 2.13101426, "ECCENTRICITY": 0.00048155, "INCLINATION": 64.316, "RA_OF_ASC_NODE": 197.7825, "ARG_OF_PERICENTER": 72.3335, "MEAN_ANOMALY": 110.4789, "EPHEMERIS_TYPE": 0, "CLASSIFICATION_TYPE": "U", "NORAD_CAT_ID": 32393, "ELEMENT_SET_NO": 999, "REV_AT_EPOCH": 14006, "BSTAR": 0, "MEAN_MOTION_DOT": 1.04e-06, "MEAN_MOTION_DDOT": 0}, "tle": {"line1": "1 32393U 07065A   25359.20183670  .00000104  00000+0  00000+0 0  9992", "line2": "2 32393  64.3160 197.7825 0004815  72.3335 110.4789  2.13101426140063"}}, "geometry": {"type": "Point", "coordinates": [-146.1325365880323, 29.952180356943398]}}, {"type": "Feature", "properties": {"norad_id": 32395, "name": "COSMOS 2436 (723)", "group": "gnss", "lat": 11.837904770512582, "lon": 12.042414546062764, "alt_km": 19170.688701151925, "timestamp": "2025-12-25T22:42:17.253481+00:00", "meta": {"OBJECT_NAME": "COSMOS 2436 (723)", "OBJECT_ID": "2007-065C", "EPOCH": "2025-12-25T06:17:47.253408", "MEAN_MOTION": 2.1310019, "ECCENTRICITY": 0.0017826, "INCLINATION": 64.3246, "RA_OF_ASC_NODE": 197.8509, "ARG_OF_PERICENTER": 10.3034, "MEAN_ANOMALY": 351.9575, "EPHEMERIS_TYPE": 0, "CLASSIFICATION_TYPE": "U", "NORAD_CAT_ID": 32395, "ELEMENT_SET_NO": 999, "REV_AT_EPOCH": 14002, "BSTAR": 0, "MEAN_MOTION_DOT": 1.04e-06, "MEAN_MOTION_DDOT": 0}, "tle": {"line1": "1 32395U 07065C   25359.26235247  .00000104  00000+0  00000+0 0  9998", "line2": "2 32395  64.3246 197.8509 0017826  10.3034 351.9575  2.13100190140022"}}, "geometry": {"type": "Point", "coordinates": [12.042414546062764, 11.837904770512582]}}, {"type": "Feature", "properties": {"norad_id": 32711, "name": "GPS BIIRM-6 (PRN 07)", "group": "gnss", "lat": -31.81032520287219, "lon": 3.1362772879986536, "alt_km": 19694.83460299641, "timestamp": "2025-12-25T22:42:17.253493+00:00", "meta": {"OBJECT_NAME": "GPS BIIRM-6 (PRN 07)", "OBJECT_ID": "2008-012A", "EPOCH": "2025-12-25T15:16:44.562432", "MEAN_MOTION": 2.00566129, "ECCENTRICITY": 0.0203018, "INCLINATION": 54.4785, "RA_OF_ASC_NODE": 156.8581, "ARG_OF_PERICENTER": 245.1029, "MEAN_ANOMALY": 112.7632, "EPHEMERIS_TYPE": 0, "CLASSIFICATION_TYPE": "U", "NORAD_CAT_ID": 32711, "ELEMENT_SET_NO": 999, "REV_AT_EPOCH": 13027, "BSTAR": 0, "MEAN_MOTION_DOT": 1.01e-06, "MEAN_MOTION_DDOT": 0}, "tle": {"line1": "1 32711U 08012A   25359.63662688  .00000101  00000+0  00000+0 0  9994", "line2": "2 32711  54.4785 156.8581 0203018 245.1029 112.7632  2.00566129130276"}}, "geometry": {"type": "Point", "coordinates": [3.1362772879986536, -31.81032520287219]}}, {"type": "Feature", "properties": {"norad_id": 35752, "name": "GPS BIIRM-8 (PRN 05)", "group": "gnss", "lat": -46.72990035083614, "lon": -100.16198623306764, "alt_km": 20315.94484835195, "timestamp": "2025-12-25T22:42:17.253505+00:00", "meta": {"OBJECT_NAME": "GPS BIIRM-8 (PRN 05)", "OBJECT_ID": "2009-043A", "EPOCH": "2025-12-25T15:05:55.166208", "MEAN_MOTION": 2.00564825, "ECCENTRICITY": 0.0051563, "INCLINATION": 56.0999, "RA_OF_ASC_NODE": 34.2749, "ARG_OF_PERICENTER": 81.7012, "MEAN_ANOMALY": 290.5995, "EPHEMERIS_TYPE": 0, "CLASSIFICATION_TYPE": "U", "NORAD_CAT_ID": 35752, "ELEMENT_SET_NO": 999, "REV_AT_EPOCH": 11988, "BSTAR": 0, "MEAN_MOTION_DOT": -5.1e-07, "MEAN_MOTION_DDOT": 0}, "tle": {"line1": "1 35752U 09043A   25359.62911072 -.00000051  00000+0  00000+0 0  9995", "line2": "2 35752  56.0999  34.2749 0051563  81.7012 290.5995  2.00564825119888"}}, "geometry": {"type": "Point", "coordinates": [-100.16198623306764, -46.72990035083614]}}, {"type": "Feature", "properties": {"norad_id": 36111, "name": "COSMOS 2456 (730)", "group": "gnss", "lat": -9.824790492420451, "lon": -98.45293315224698, "alt_km": 19133.823433054626, "timestamp": "2025-12-25T22:42:17.253516+00:00", "meta": {"OBJECT_NAME": "COSMOS 2456 (730)", "OBJECT_ID": "2009-070A", "EPOCH": "2025-12-24T09:16:29.146080", "MEAN_MOTION": 2.13103739, "ECCENTRICITY": 0.00036447, "INCLINATION": 64.9059, "RA_OF_ASC_NODE": 76.94, "ARG_OF_PERICENTER": 294.9884, "MEAN_ANOMALY": 139.4332, "EPHEMERIS_TYPE": 0, "CLASSIFICATION_TYPE": "U", "NORAD_CAT_ID": 36111, "ELEMENT_SET_NO": 999, "REV_AT_EPOCH": 12470, "BSTAR": 0, "MEAN_MOTION_DOT": -1e-08, "MEAN_MOTION_DDOT": 0}, "tle": {"line1": "1 36111U 09070A   25358.38644845 -.00000001  00000+0  00000+0 0  9993", "line2": "2 36111  64.9059  76.9400 0003644 294.9884 139.4332  2.13103739124702"}}, "geometry": {"type": "Point", "coordinates": [-98.45293315224698, -9.824790492420451]}}, {"type": "Feature", "properties": {"norad_id": 36112, "name": "COSMOS 2457 (733)", "group": "gnss", "lat": -35.6977426151204, "lon": 57.08647207571597, "alt_km": 19144.975935490238, "timestamp": "2025-12-25T22:42:17.253528+00:00", "meta": {"OBJECT_NAME": "COSMOS 2457 (733)", "OBJECT_ID": "2009-070B", "EPOCH": "2025-12-25T12:53:15.895392", "MEAN_MOTION": 2.13101109, "ECCENTRICITY": 0.0004451, "INCLINATION": 64.8923, "RA_OF_ASC_NODE": 76.7479, "ARG_OF_PERICENTER": 163.6164, "MEAN_ANOMALY": 202.4906, "EPHEMERIS_TYPE": 0, "CLASSIFICATION_TYPE": "U", "NORAD_CAT_ID": 36112, "ELEMENT_SET_NO": 999, "REV_AT_EPOCH": 12473, "BSTAR": 0, "MEAN_MOTION_DOT": -5e-08, "MEAN_MOTION_DDOT": 0}, "tle": {"line1": "1 36112U 09070B   25359.53698953 -.00000005  00000+0  00000+0 0  9995", "line2": "2 36112  64.8923  76.7479 0004451 163.6164 202.4906  2.13101109124736"}}, "geometry": {"type": "Point", "coordinates": [57.08647207571597, -35.6977426151204]}}]}